NORAD_CAT_ID,OBJECT_NAME,OBJECT_TYPE,EPOCH,MEAN_MOTION,ECCENTRICITY,INCLINATION,RA_OF_ASC_NODE,ARG_OF_PERICENTER,MEAN_ANOMALY,BSTAR,MEAN_MOTION_DOT,MEAN_MOTION_DDOT,TLE_LINE0,TLE_LINE1,TLE_LINE2,SEMIMAJOR_AXIS,PERIOD,APOGEE,PERIGEE,DECAYED
53936.0,STARLINK-4791,PAYLOAD,2023-05-23 21:27:58,15.08842842,0.0001173,53.2169,201.387,81.1356,278.9769,5.7683e-05,6.3e-06,0.0,0 STARLINK-4791,1 53936U 22119BC  23143.89442948  .00000630  00000-0  57683-4 0  9994,2 53936  53.2169 201.3870 0001173  81.1356 278.9769 15.08842842 37944,6917.872,95.437,540.548,538.925,0.0
53936.0,STARLINK-4791,PAYLOAD,2023-05-24 08:35:40,15.0883769,0.0001162,53.2167,199.3052,76.2166,283.8956,0.0001846,2.651e-05,0.0,0 STARLINK-4791,1 53936U 22119BC  23144.35811178  .00002651  00000-0  18460-3 0  9995,2 53936  53.2167 199.3052 0001162  76.2166 283.8956 15.08837690 38019,6917.887,95.438,540.556,538.949,0.0
53936.0,STARLINK-4791,PAYLOAD,2023-05-26 03:31:05,15.08841928,0.0001061,53.2161,191.2752,86.6072,273.5042,2.5173e-05,1.13e-06,0.0,0 STARLINK-4791,1 53936U 22119BC  23146.14659172  .00000113  00000-0  25173-4 0  9999,2 53936  53.2161 191.2752 0001061  86.6072 273.5042 15.08841928 37852,6917.874,95.437,540.473,539.006,0.0
53936.0,STARLINK-4791,PAYLOAD,2023-05-26 08:17:14,15.08841605,0.0001047,53.2161,190.3833,87.681,272.4302,1.6103e-05,-3.1e-07,0.0,0 STARLINK-4791,1 53936U 22119BC  23146.34531175 -.00000031  00000-0  16103-4 0  9996,2 53936  53.2161 190.3833 0001047  87.6810 272.4302 15.08841605 38318,6917.875,95.437,540.465,539.016,0.0
53936.0,STARLINK-4791,PAYLOAD,2023-05-27 09:43:25,15.08835941,0.0001006,53.2159,185.6265,83.7765,276.3341,2.6918e-05,1.41e-06,0.0,0 STARLINK-4791,1 53936U 22119BC  23147.40515550  .00000141  00000-0  26918-4 0  9999,2 53936  53.2159 185.6265 0001006  83.7765 276.3341 15.08835941 38044,6917.893,95.438,540.454,539.062,0.0
53936.0,STARLINK-4791,PAYLOAD,2023-05-27 19:15:44,15.08836107,9.98e-05,53.2158,183.8423,83.3572,276.7534,2.3626e-05,8.8e-07,0.0,0 STARLINK-4791,1 53936U 22119BC  23147.80259635  .00000088  00000-0  23626-4 0  9995,2 53936  53.2158 183.8423 0000998  83.3572 276.7534 15.08836107 38537,6917.892,95.438,540.448,539.067,0.0
53936.0,STARLINK-4791,PAYLOAD,2023-05-28 01:37:16,15.08837415,9.81e-05,53.2158,182.6528,82.5005,277.6099,2.6925e-05,1.41e-06,0.0,0 STARLINK-4791,1 53936U 22119BC  23148.06755589  .00000141  00000-0  26925-4 0  9998,2 53936  53.2158 182.6528 0000981  82.5005 277.6099 15.08837415 38577,6917.888,95.438,540.432,539.075,0.0
53936.0,STARLINK-4791,PAYLOAD,2023-05-28 19:06:31,15.08839744,9.72e-05,53.2158,179.3819,83.0822,277.028,5.9135e-05,6.54e-06,0.0,0 STARLINK-4791,1 53936U 22119BC  23148.79619437  .00000654  00000-0  59135-4 0  9997,2 53936  53.2158 179.3819 0000972  83.0822 277.0280 15.08839744 38681,6917.881,95.438,540.419,539.074,0.0
53936.0,STARLINK-4791,PAYLOAD,2023-05-28 22:17:17,15.08838519,9.75e-05,53.2159,178.7872,82.9491,277.1612,7.3632e-05,8.84e-06,0.0,0 STARLINK-4791,1 53936U 22119BC  23148.92867475  .00000884  00000-0  73632-4 0  9992,2 53936  53.2159 178.7872 0000975  82.9491 277.1612 15.08838519 38271,6917.885,95.438,540.424,539.075,0.0
53936.0,STARLINK-4791,PAYLOAD,2023-05-29 11:00:22,15.08840212,9.92e-05,53.2158,176.4081,81.462,278.6485,7.4571e-05,8.99e-06,0.0,0 STARLINK-4791,1 53936U 22119BC  23149.45859402  .00000899  00000-0  74571-4 0  9991,2 53936  53.2158 176.4081 0000992  81.4620 278.6485 15.08840212 38787,6917.88,95.438,540.431,539.058,0.0
53936.0,STARLINK-4791,PAYLOAD,2023-05-29 18:57:18,15.08838927,9.9e-05,53.2159,174.9214,83.3422,276.7683,5.6365e-05,6.09e-06,0.0,0 STARLINK-4791,1 53936U 22119BC  23149.78979548  .00000609  00000-0  56365-4 0  9991,2 53936  53.2159 174.9214 0000990  83.3422 276.7683 15.08838927 38833,6917.884,95.438,540.434,539.064,0.0
53936.0,STARLINK-4791,PAYLOAD,2023-05-30 01:18:50,15.08838405,0.0001014,53.2158,173.732,84.196,275.9147,3.3729e-05,2.49e-06,0.0,0 STARLINK-4791,1 53936U 22119BC  23150.05475684  .00000249  00000-0  33729-4 0  9994,2 53936  53.2158 173.7320 0001014  84.1960 275.9147 15.08838405 38445,6917.885,95.438,540.452,539.049,0.0
53936.0,STARLINK-4791,PAYLOAD,2023-05-30 09:15:46,15.08836794,0.000103,53.2159,172.245,84.28,275.8309,2.2901e-05,7.7e-07,0.0,0 STARLINK-4791,1 53936U 22119BC  23150.38595870  .00000077  00000-0  22901-4 0  9999,2 53936  53.2159 172.2450 0001030  84.2800 275.8309 15.08836794 38927,6917.89,95.438,540.468,539.043,0.0
53936.0,STARLINK-4791,PAYLOAD,2023-05-30 18:48:05,15.08837874,0.0001034,53.2159,170.4607,83.5713,276.5396,1.5128e-05,-4.7e-07,0.0,0 STARLINK-4791,1 53936U 22119BC  23150.78339877 -.00000047  00000-0  15128-4 0  9997,2 53936  53.2159 170.4607 0001034  83.5713 276.5396 15.08837874 38980,6917.887,95.438,540.467,539.037,0.0
53936.0,STARLINK-4791,PAYLOAD,2023-05-31 07:31:10,15.08839638,0.0001013,53.2158,168.0812,85.1766,274.9341,2.6898e-05,1.4e-06,0.0,0 STARLINK-4791,1 53936U 22119BC  23151.31331763  .00000140  00000-0  26898-4 0  9992,2 53936  53.2158 168.0812 0001013  85.1766 274.9341 15.08839638 38637,6917.881,95.438,540.447,539.046,0.0
53936.0,STARLINK-4791,PAYLOAD,2023-05-31 20:14:15,15.08841298,9.99e-05,53.2156,165.7021,85.1248,274.9858,6.0194e-05,6.7e-06,0.0,0 STARLINK-4791,1 53936U 22119BC  23151.84323527  .00000670  00000-0  60194-4 0  9994,2 53936  53.2156 165.7021 0000999  85.1248 274.9858 15.08841298 39143,6917.876,95.437,540.433,539.05,0.0
53936.0,STARLINK-4791,PAYLOAD,2023-06-01 07:21:57,15.08843448,0.0001012,53.2158,163.6207,83.9052,276.2055,0.00010118,1.323e-05,0.0,0 STARLINK-4791,1 53936U 22119BC  23152.30691261  .00001323  00000-0  10118-3 0  9995,2 53936  53.2158 163.6207 0001012  83.9052 276.2055 15.08843448 39215,6917.87,95.437,540.435,539.035,0.0
53936.0,STARLINK-4791,PAYLOAD,2023-06-02 00:51:12,15.08836112,0.0001099,53.2154,160.3489,86.7645,273.3473,4.3919e-05,4.11e-06,0.0,0 STARLINK-4791,1 53936U 22119BC  23153.03555906  .00000411  00000-0  43919-4 0  9994,2 53936  53.2154 160.3489 0001099  86.7645 273.3473 15.08836112 38896,6917.892,95.438,540.518,538.997,0.0
53936.0,STARLINK-4791,PAYLOAD,2023-06-02 07:12:44,15.08837061,0.0001062,53.2156,159.1594,84.3064,275.8049,7.5593e-06,-1.67e-06,0.0,0 STARLINK-4791,1 53936U 22119BC  23153.30051965 -.00000167  00000-0  75593-5 0  9993,2 53936  53.2156 159.1594 0001062  84.3064 275.8049 15.08837061 39363,6917.889,95.438,540.489,539.02,0.0
53936.0,STARLINK-4791,PAYLOAD,2023-06-03 10:14:18,15.08839428,0.0001089,53.2163,154.1055,80.2826,279.8289,-3.5986e-06,-3.45e-06,0.0,0 STARLINK-4791,1 53936U 22119BC  23154.42660021 -.00000345  00000-0 -35986-5 0  9997,2 53936  53.2163 154.1055 0001089  80.2826 279.8289 15.08839428 39109,6917.882,95.438,540.5,538.994,0.0
53936.0,STARLINK-4791,PAYLOAD,2023-06-03 16:35:50,15.08837417,0.0001085,53.2161,152.9158,76.9998,283.1115,-3.2181e-06,-3.39e-06,0.0,0 STARLINK-4791,1 53936U 22119BC  23154.69156159 -.00000339  00000-0 -32181-5 0  9995,2 53936  53.2161 152.9158 0001085  76.9998 283.1115 15.08837417 39578,6917.888,95.438,540.504,539.003,0.0
53936.0,STARLINK-4791,PAYLOAD,2023-06-04 08:29:42,15.08835708,0.0001047,53.2159,149.9427,82.7537,277.3574,5.8494e-05,6.43e-06,0.0,0 STARLINK-4791,1 53936U 22119BC  23155.35396263  .00000643  00000-0  58494-4 0  9991,2 53936  53.2159 149.9427 0001047  82.7537 277.3574 15.08835708 39678,6917.894,95.438,540.483,539.034,0.0
53936.0,STARLINK-4791,PAYLOAD,2023-06-05 05:09:43,15.08839134,0.000105,53.216,146.0769,81.6125,278.4986,5.4463e-05,5.79e-06,0.0,0 STARLINK-4791,1 53936U 22119BC  23156.21508213  .00000579  00000-0  54463-4 0  9997,2 53936  53.2160 146.0769 0001050  81.6125 278.4986 15.08839134 39375,6917.883,95.438,540.474,539.022,0.0
53936.0,STARLINK-4791,PAYLOAD,2023-06-05 11:31:15,15.08842547,0.0001061,53.216,144.8875,81.6507,278.4606,7.9265e-05,9.74e-06,0.0,0 STARLINK-4791,1 53936U 22119BC  23156.48003939  .00000974  00000-0  79265-4 0  9997,2 53936  53.2160 144.8875 0001061  81.6507 278.4606 15.08842547 39848,6917.873,95.437,540.472,539.004,0.0
53936.0,STARLINK-4791,PAYLOAD,2023-06-06 08:11:16,15.0883904,0.0001112,53.2161,141.0218,86.3351,273.7768,4.2675e-05,3.91e-06,0.0,0 STARLINK-4791,1 53936U 22119BC  23157.34116438  .00000391  00000-0  42675-4 0  9990,2 53936  53.2161 141.0218 0001112  86.3351 273.7768 15.08839040 39543,6917.883,95.438,540.518,538.979,0.0
53936.0,STARLINK-4791,PAYLOAD,2023-06-06 11:22:02,15.08840346,0.0001112,53.2161,140.4271,86.2004,273.9115,5.2055e-05,5.41e-06,0.0,0 STARLINK-4791,1 53936U 22119BC  23157.47364335  .00000541  00000-0  52055-4 0  9995,2 53936  53.2161 140.4271 0001112  86.2004 273.9115 15.08840346 39997,6917.879,95.438,540.514,538.975,0.0
53936.0,STARLINK-4791,PAYLOAD,2023-06-06 22:29:44,15.08841074,0.0001088,53.2164,138.3444,102.4015,257.7099,2.6439e-05,1.33e-06,0.0,0 STARLINK-4791,1 53936U 22119BC  23157.93732329  .00000133  00000-0  26439-4 0  9992,2 53936  53.2164 138.3444 0001088 102.4015 257.7099 15.08841074 40063,6917.877,95.437,540.495,538.989,0.0
53936.0,STARLINK-4791,PAYLOAD,2023-06-07 08:02:03,15.08845813,0.000113,53.2161,136.5605,90.5485,269.5637,6.9359e-05,8.16e-06,0.0,0 STARLINK-4791,1 53936U 22119BC  23158.33475869  .00000816  00000-0  69359-4 0  9996,2 53936  53.2161 136.5605 0001130  90.5485 269.5637 15.08845813 40126,6917.863,95.437,540.509,538.946,0.0
53936.0,STARLINK-4791,PAYLOAD,2023-06-07 15:58:59,15.08840819,0.0001087,53.216,135.0739,91.3479,268.7638,2.7356e-05,1.48e-06,0.0,0 STARLINK-4791,1 53936U 22119BC  23158.66596252  .00000148  00000-0  27356-4 0  9991,2 53936  53.2160 135.0739 0001087  91.3479 268.7638 15.08840819 39749,6917.878,95.438,540.495,538.991,0.0
53936.0,STARLINK-4791,PAYLOAD,2023-06-08 07:52:50,15.08839814,0.0001128,53.2159,132.0994,93.3705,266.7416,4.3581e-05,4.06e-06,0.0,0 STARLINK-4791,1 53936U 22119BC  23159.32836323  .00000406  00000-0  43581-4 0  9996,2 53936  53.2159 132.0994 0001128  93.3705 266.7416 15.08839814 40272,6917.881,95.438,540.526,538.966,0.0
